{
  "type": "FeatureCollection",
  "features": [
    {
      "type": "Feature",
      "geometry": {
        "type": "Point",
        "coordinates": [
          5.22447,
          52.30884
        ]
      },
      "properties": {
        "naam": "Punt Aalberg",
        "kleur": "#3b82f6",
        "vorm": "driehoek",
        "quat": {
          "rot": 0,
          "flipX": 1,
          "flipY": 1
        }
      }
    },
    {
      "type": "Feature",
      "geometry": {
        "type": "Point",
        "coordinates": [
          5.2275,
          52.2805
        ]
      },
      "properties": {
        "naam": "Punt Tafelberg",
        "kleur": "#eab308",
        "vorm": "cirkel",
        "quat": {
          "rot": 0,
          "flipX": 1,
          "flipY": 1
        }
      }
    },
    {
      "type": "Feature",
      "geometry": {
        "type": "Point",
        "coordinates": [
          4.898078441619874,
          52.374622782753214
        ]
      },
      "properties": {
        "naam": "oude kerk",
        "kleur": "#ef4444",
        "vorm": "driehoek",
        "quat": {
          "rot": 0,
          "flipX": 1,
          "flipY": 1
        }
      }
    },
    {
      "type": "Feature",
      "geometry": {
        "type": "Point",
        "coordinates": [
          4.898043189732705,
          52.3741189045239
        ]
      },
      "properties": {
        "naam": "oude kerk z",
        "kleur": "#eab308",
        "vorm": "driehoek",
        "quat": {
          "rot": 0,
          "flipX": 1,
          "flipY": -1
        }
      }
    },
    {
      "type": "Feature",
      "geometry": {
        "type": "Point",
        "coordinates": [
          4.898500697966603,
          52.37438417818086
        ]
      },
      "properties": {
        "naam": "oude kerk o",
        "kleur": "#22c55e",
        "vorm": "cirkel",
        "quat": {
          "rot": 0,
          "flipX": 1,
          "flipY": 1
        }
      }
    },
    {
      "type": "Feature",
      "geometry": {
        "type": "Point",
        "coordinates": [
          4.8975381680876415,
          52.374354235555685
        ]
      },
      "properties": {
        "naam": "oude kerk w",
        "kleur": "#3b82f6",
        "vorm": "vierkant",
        "quat": {
          "rot": 0,
          "flipX": 1,
          "flipY": 1
        }
      }
    }
  ]
}